NAVSTAR 77 (USA 289)    
1 43873U 18109A   24284.77961235  .00000068  00000+0  00000+0 0  9996
2 43873  55.3433 116.4589 0031216 191.8107 179.1799  2.00560535 42751
